NORAD_CAT_ID,OBJECT_NAME,OBJECT_TYPE,EPOCH,MEAN_MOTION,ECCENTRICITY,INCLINATION,RA_OF_ASC_NODE,ARG_OF_PERICENTER,MEAN_ANOMALY,BSTAR,MEAN_MOTION_DOT,MEAN_MOTION_DDOT,TLE_LINE0,TLE_LINE1,TLE_LINE2,SEMIMAJOR_AXIS,PERIOD,APOGEE,PERIGEE,DECAYED
53533.0,STARLINK-4493,PAYLOAD,2024-04-27 14:02:28,15.08838755,0.0001228,53.217,251.7085,113.6429,246.4692,3.3983e-05,2.53e-06,0.0,0 STARLINK-4493,1 53533U 22101G   24118.58505550  .00000253  00000-0  33983-4 0  9994,2 53533  53.2170 251.7085 0001228 113.6429 246.4692 15.08838755 93348,6917.884,95.438,540.599,538.9,0.0
53533.0,STARLINK-4493,PAYLOAD,2024-04-27 15:37:52,15.0883634,0.0001139,53.217,251.4128,95.3231,264.7892,1.0758e-05,-1.17e-06,0.0,0 STARLINK-4493,1 53533U 22101G   24118.65129858 -.00000117  00000-0  10758-4 0  9990,2 53533  53.2170 251.4128 0001139  95.3231 264.7892 15.08836340 93355,6917.892,95.438,540.545,538.969,0.0
53533.0,STARLINK-4493,PAYLOAD,2024-04-28 12:17:53,15.08830537,0.0001252,53.2174,247.5456,97.3454,262.7681,-9.6225e-05,-1.819e-05,0.0,0 STARLINK-4493,1 53533U 22101G   24119.51242768 -.00001819  00000-0 -96225-4 0  9996,2 53533  53.2174 247.5456 0001252  97.3454 262.7681 15.08830537 93484,6917.909,95.438,540.64,538.908,0.0
53533.0,STARLINK-4493,PAYLOAD,2024-04-28 15:28:39,15.08833065,0.000117,53.2158,246.9483,77.0508,283.0615,-9.9682e-05,-1.874e-05,0.0,0 STARLINK-4493,1 53533U 22101G   24119.64490682 -.00001874  00000-0 -99682-4 0  9991,2 53533  53.2158 246.9483 0001170  77.0508 283.0615 15.08833065 93508,6917.902,95.438,540.576,538.957,0.0
53533.0,STARLINK-4493,PAYLOAD,2024-04-29 01:00:58,15.08837584,0.0001191,53.2164,245.1673,86.9333,273.1795,-0.00012085,-2.211e-05,0.0,0 STARLINK-4493,1 53533U 22101G   24120.04234557 -.00002211  00000-0 -12085-3 0  9991,2 53533  53.2164 245.1673 0001191  86.9333 273.1795 15.08837584 93560,6917.888,95.438,540.577,538.929,0.0
53533.0,STARLINK-4493,PAYLOAD,2024-04-29 13:44:03,15.08830934,0.000122,53.217,242.7894,97.8329,262.2802,0.00015533,2.184e-05,0.0,0 STARLINK-4493,1 53533U 22101G   24120.57226408  .00002184  00000-0  15533-3 0  9993,2 53533  53.2170 242.7894 0001220  97.8329 262.2802 15.08830934 93643,6917.908,95.438,540.617,538.929,0.0
53533.0,STARLINK-4493,PAYLOAD,2024-04-29 18:30:12,15.0884143,0.0001038,53.2166,241.8933,78.4719,281.6389,0.00019411,2.803e-05,0.0,0 STARLINK-4493,1 53533U 22101G   24120.77097655  .00002803  00000-0  19411-3 0  9992,2 53533  53.2166 241.8933 0001038  78.4719 281.6389 15.08841430 93678,6917.876,95.437,540.459,539.023,0.0
53533.0,STARLINK-4493,PAYLOAD,2024-04-30 11:59:27,15.08832735,0.0001454,53.2164,238.6206,74.1928,285.9225,0.00014933,2.089e-05,0.0,0 STARLINK-4493,1 53533U 22101G   24121.49962648  .00002089  00000-0  14933-3 0  9995,2 53533  53.2164 238.6206 0001454  74.1928 285.9225 15.08832735 93786,6917.903,95.438,540.773,538.762,0.0
53533.0,STARLINK-4493,PAYLOAD,2024-04-30 13:34:50,15.08833933,0.000113,53.218,238.3284,87.3322,272.78,0.00015237,2.138e-05,0.0,0 STARLINK-4493,1 53533U 22101G   24121.56586565  .00002138  00000-0  15237-3 0  9996,2 53533  53.2180 238.3284 0001130  87.3322 272.7800 15.08833933 93797,6917.899,95.438,540.546,538.982,0.0
53533.0,STARLINK-4493,PAYLOAD,2024-04-30 15:10:13,15.08833558,0.0001122,53.2179,238.0309,82.6568,277.4552,0.00015168,2.127e-05,0.0,0 STARLINK-4493,1 53533U 22101G   24121.63210624  .00002127  00000-0  15168-3 0  9995,2 53533  53.2179 238.0309 0001122  82.6568 277.4552 15.08833558 93802,6917.9,95.438,540.541,538.989,0.0
53533.0,STARLINK-4493,PAYLOAD,2024-05-01 00:42:32,15.08841965,0.0001122,53.2177,236.2482,88.3101,271.802,0.00015388,2.162e-05,0.0,0 STARLINK-4493,1 53533U 22101G   24122.02954108  .00002162  00000-0  15388-3 0  9994,2 53533  53.2177 236.2482 0001122  88.3101 271.8020 15.08841965 93863,6917.874,95.437,540.516,538.963,0.0
53533.0,STARLINK-4493,PAYLOAD,2024-05-01 07:04:04,15.08842466,0.0001142,53.2186,235.0579,89.5019,270.6103,0.00010912,1.449e-05,0.0,0 STARLINK-4493,1 53533U 22101G   24122.29450199  .00001449  00000-0  10912-3 0  9999,2 53533  53.2186 235.0579 0001142  89.5019 270.6103 15.08842466 93901,6917.873,95.437,540.528,538.948,0.0
53533.0,STARLINK-4493,PAYLOAD,2024-05-02 00:33:18,15.08855146,0.0001001,53.217,231.7845,77.0324,283.0779,2.9924e-05,1.89e-06,0.0,0 STARLINK-4493,1 53533U 22101G   24123.02313059  .00000189  00000-0  29924-4 0  9998,2 53533  53.2170 231.7845 0001001  77.0324 283.0779 15.08855146 94017,6917.834,95.437,540.392,539.007,0.0
53533.0,STARLINK-4493,PAYLOAD,2024-05-02 13:16:25,15.08829794,9.94e-05,53.217,229.4091,87.1857,272.9249,-0.00010938,-2.028e-05,0.0,0 STARLINK-4493,1 53533U 22101G   24123.55307088 -.00002028  00000-0 -10938-3 0  9991,2 53533  53.2170 229.4091 0000994  87.1857 272.9249 15.08829794 94094,6917.912,95.438,540.464,539.089,0.0
53533.0,STARLINK-4493,PAYLOAD,2024-05-02 14:51:47,15.08840034,0.0001098,53.2167,229.1078,91.2598,268.8519,-2.5557e-05,-6.95e-06,0.0,0 STARLINK-4493,1 53533U 22101G   24123.61930314 -.00000695  00000-0 -25557-4 0  9994,2 53533  53.2167 229.1078 0001098  91.2598 268.8519 15.08840034 94102,6917.88,95.438,540.505,538.986,0.0
53533.0,STARLINK-4493,PAYLOAD,2024-05-03 00:24:05,15.08848142,0.0001166,53.2156,227.3248,97.1492,262.9633,3.9056e-05,3.34e-06,0.0,0 STARLINK-4493,1 53533U 22101G   24124.01673363  .00000334  00000-0  39056-4 0  9994,2 53533  53.2156 227.3248 0001166  97.1492 262.9633 15.08848142 94169,6917.856,95.437,540.527,538.914,0.0
53533.0,STARLINK-4493,PAYLOAD,2024-05-03 13:07:10,15.0884834,0.0001952,53.214,224.9476,84.1752,275.9462,6.8373e-05,8e-06,0.0,0 STARLINK-4493,1 53533U 22101G   24124.54665245  .00000800  00000-0  68373-4 0  9994,2 53533  53.2140 224.9476 0001952  84.1752 275.9462 15.08848340 94249,6917.855,95.437,541.07,538.37,0.0
53533.0,STARLINK-4493,PAYLOAD,2024-05-03 16:17:56,15.08857292,0.000115,53.2157,224.3503,91.0586,269.0538,5.0884e-05,5.22e-06,0.0,0 STARLINK-4493,1 53533U 22101G   24124.67912457  .00000522  00000-0  50884-4 0  9997,2 53533  53.2157 224.3503 0001150  91.0586 269.0538 15.08857292 94260,6917.828,95.436,540.488,538.897,0.0
53533.0,STARLINK-4493,PAYLOAD,2024-05-04 12:57:59,15.08817897,0.0001327,53.2171,220.4855,102.5859,257.5282,-0.00010077,-1.89e-05,0.0,0 STARLINK-4493,1 53533U 22101G   24125.54027556 -.00001890  00000-0 -10077-3 0  9991,2 53533  53.2171 220.4855 0001327 102.5859 257.5282 15.08817897 94399,6917.948,95.439,540.731,538.895,0.0
53533.0,STARLINK-4493,PAYLOAD,2024-05-05 12:48:45,15.08848575,0.000131,53.2174,216.0268,101.8648,258.2491,-3.4099e-05,-8.31e-06,0.0,0 STARLINK-4493,1 53533U 22101G   24126.53386058 -.00000831  00000-0 -34099-4 0  9991,2 53533  53.2174 216.0268 0001310 101.8648 258.2491 15.08848575 94545,6917.854,95.437,540.625,538.813,0.0
53533.0,STARLINK-4493,PAYLOAD,2024-05-05 22:21:03,15.08856525,0.0001304,53.2177,214.2429,102.1768,257.937,4.8313e-05,4.81e-06,0.0,0 STARLINK-4493,1 53533U 22101G   24126.93129148  .00000481  00000-0  48313-4 0  9993,2 53533  53.2177 214.2429 0001304 102.1768 257.9370 15.08856525 94600,6917.83,95.437,540.597,538.793,0.0
53533.0,STARLINK-4493,PAYLOAD,2024-05-06 12:39:32,15.08838827,0.0001372,53.2188,211.5712,115.2838,244.8296,0.00023105,3.391e-05,0.0,0 STARLINK-4493,1 53533U 22101G   24127.52746195  .00003391  00000-0  23105-3 0  9990,2 53533  53.2188 211.5712 0001372 115.2838 244.8296 15.08838827 94691,6917.884,95.438,540.698,538.8,0.0
53533.0,STARLINK-4493,PAYLOAD,2024-05-07 12:30:20,15.08837942,0.0001165,53.2173,207.1055,97.7611,262.3513,-1.5189e-06,-3.12e-06,0.0,0 STARLINK-4493,1 53533U 22101G   24128.52106877 -.00000312  00000-0 -15189-5 0  9995,2 53533  53.2173 207.1055 0001165  97.7611 262.3513 15.08837942 94840,6917.887,95.438,540.558,538.946,0.0
53533.0,STARLINK-4493,PAYLOAD,2024-05-08 13:56:30,15.08842815,0.0001147,53.2164,202.3476,84.2533,275.859,6.9e-06,-1.78e-06,0.0,0 STARLINK-4493,1 53533U 22101G   24129.58090623 -.00000178  00000-0  69000-5 0  9993,2 53533  53.2164 202.3476 0001147  84.2533 275.8590 15.08842815 95006,6917.872,95.437,540.53,538.943,0.0
53533.0,STARLINK-4493,PAYLOAD,2024-05-08 21:53:25,15.08845224,0.0001124,53.2163,200.8595,75.2999,284.8118,6.3751e-05,7.27e-06,0.0,0 STARLINK-4493,1 53533U 22101G   24129.91210180  .00000727  00000-0  63751-4 0  9997,2 53533  53.2163 200.8595 0001124  75.2999 284.8118 15.08845224 95059,6917.864,95.437,540.507,538.952,0.0
53533.0,STARLINK-4493,PAYLOAD,2024-05-09 12:11:54,15.08841821,0.000122,53.2162,198.1852,88.3074,271.8058,8.4729e-05,1.061e-05,0.0,0 STARLINK-4493,1 53533U 22101G   24130.50826464  .00001061  00000-0  84729-4 0  9992,2 53533  53.2162 198.1852 0001220  88.3074 271.8058 15.08841821 95147,6917.875,95.437,540.584,538.896,0.0
53533.0,STARLINK-4493,PAYLOAD,2024-05-10 04:05:45,15.08846745,0.0001209,53.2161,195.2111,78.0209,282.0919,0.00010227,1.34e-05,0.0,0 STARLINK-4493,1 53533U 22101G   24131.17066291  .00001340  00000-0  10227-3 0  9991,2 53533  53.2161 195.2111 0001209  78.0209 282.0919 15.08846745 95246,6917.86,95.437,540.561,538.888,0.0
53533.0,STARLINK-4493,PAYLOAD,2024-05-10 13:38:04,15.08845831,0.0001067,53.216,193.4247,87.5245,272.5869,7.5019e-05,9.07e-06,0.0,0 STARLINK-4493,1 53533U 22101G   24131.56810317  .00000907  00000-0  75019-4 0  9999,2 53533  53.2160 193.4247 0001067  87.5245 272.5869 15.08845831 95302,6917.863,95.437,540.466,538.989,0.0
53533.0,STARLINK-4493,PAYLOAD,2024-05-11 08:42:38,15.08896634,0.0002685,53.2181,189.8591,121.9774,238.1479,0.00052174,8.038e-05,0.0,0 STARLINK-4493,1 53533U 22101G   24132.36294299  .00008038  00000-0  52174-3 0  9992,2 53533  53.2181 189.8591 0002685 121.9774 238.1479 15.08896634 95428,6917.707,95.434,541.43,537.715,0.0
53533.0,STARLINK-4493,PAYLOAD,2024-05-12 11:44:19,15.08778813,0.0001034,53.215,184.8016,82.6602,277.4508,-0.00056994,-9.331e-05,0.0,0 STARLINK-4493,1 53533U 22101G   24133.48911032 -.00009331  00000-0 -56994-3 0  9990,2 53533  53.2150 184.8016 0001034  82.6602 277.4508 15.08778813 95596,6918.067,95.441,540.648,539.217,0.0
